{"type": "FeatureCollection", "features": [ {"type": "Feature", "properties": {"norad_id": 66583, "name": "STARLINK-35941", "group": "last-30-days", "lat": -42.13452068775271, "lon": 49.90887417005145, "alt_km": 390.76832863354593, "timestamp": "2025-12-07T03:52:31.204424+00:00", "meta": {"OBJECT_NAME": "STARLINK-35941", "OBJECT_ID": "2025-268AC", "EPOCH": "2025-12-06T14:00:01.999872", "MEAN_MOTION": 15.62104737, "ECCENTRICITY": 0.00015157, "INCLINATION": 42.9993, "RA_OF_ASC_NODE": 157.2099, "ARG_OF_PERICENTER": 256.6938, "MEAN_ANOMALY": 350.6887, "EPHEMERIS_TYPE": 0, "CLASSIFICATION_TYPE": "U", "NORAD_CAT_ID": 66583, "ELEMENT_SET_NO": 999, "REV_AT_EPOCH": 368, "BSTAR": -0.025203187, "MEAN_MOTION_DOT": -0.01995918, "MEAN_MOTION_DDOT": 0}, "tle": {"line1": "1 66583U 25268AC  25340.58335648 -.01995918  00000+0 -25203-1 0  9993", "line2": "2 66583  42.9993 157.2099 0001515 256.6938 350.6887 15.62104737  3680"}}, "geometry": {"type": "Point", "coordinates": [49.90887417005145, -42.13452068775271]}}, {"type": "Feature", "properties": {"norad_id": 66584, "name": "STARLINK-35939", "group": "last-30-days", "lat": -42.41883991636698, "lon": 52.46212154762342, "alt_km": 390.7264992606588, "timestamp": "2025-12-07T03:52:31.204451+00:00", "meta": {"OBJECT_NAME": "STARLINK-35939", "OBJECT_ID": "2025-268AD", "EPOCH": "2025-12-06T14:00:01.999872", "MEAN_MOTION": 15.62104734, "ECCENTRICITY": 0.00015894, "INCLINATION": 42.9993, "RA_OF_ASC_NODE": 157.2055, "ARG_OF_PERICENTER": 258.7349, "MEAN_ANOMALY": 350.5639, "EPHEMERIS_TYPE": 0, "CLASSIFICATION_TYPE": "U", "NORAD_CAT_ID": 66584, "ELEMENT_SET_NO": 999, "REV_AT_EPOCH": 368, "BSTAR": -0.025197315, "MEAN_MOTION_DOT": -0.01995566, "MEAN_MOTION_DDOT": 0}, "tle": {"line1": "1 66584U 25268AD  25340.58335648 -.01995566  00000+0 -25197-1 0  9995", "line2": "2 66584  42.9993 157.2055 0001589 258.7349 350.5639 15.62104734  3684"}}, "geometry": {"type": "Point", "coordinates": [52.46212154762342, -42.41883991636698]}}, {"type": "Feature", "properties": {"norad_id": 66585, "name": "STARLINK-35963", "group": "last-30-days", "lat": -42.64624997925267, "lon": 55.03879586714402, "alt_km": 390.8026171414822, "timestamp": "2025-12-07T03:52:31.204465+00:00", "meta": {"OBJECT_NAME": "STARLINK-35963", "OBJECT_ID": "2025-268AE", "EPOCH": "2025-12-06T14:00:01.999872", "MEAN_MOTION": 15.62102908, "ECCENTRICITY": 0.00015061, "INCLINATION": 42.9995, "RA_OF_ASC_NODE": 157.2006, "ARG_OF_PERICENTER": 258.0582, "MEAN_ANOMALY": 353.1622, "EPHEMERIS_TYPE": 0, "CLASSIFICATION_TYPE": "U", "NORAD_CAT_ID": 66585, "ELEMENT_SET_NO": 999, "REV_AT_EPOCH": 368, "BSTAR": -0.025198757, "MEAN_MOTION_DOT": -0.01995477, "MEAN_MOTION_DDOT": 0}, "tle": {"line1": "1 66585U 25268AE  25340.58335648 -.01995477  00000+0 -25199-1 0  9999", "line2": "2 66585  42.9995 157.2006 0001506 258.0582 353.1622 15.62102908  3686"}}, "geometry": {"type": "Point", "coordinates": [55.03879586714402, -42.64624997925267]}}, {"type": "Feature", "properties": {"norad_id": 66586, "name": "TJS-21", "group": "last-30-days", "lat": 27.98205435447057, "lon": -32.61525533964425, "alt_km": 15765.540091436225, "timestamp": "2025-12-07T03:52:31.204479+00:00", "meta": {"OBJECT_NAME": "TJS-21", "OBJECT_ID": "2025-269A", "EPOCH": "2025-12-05T05:53:45.339360", "MEAN_MOTION": 2.00559462, "ECCENTRICITY": 0.68051288, "INCLINATION": 63.2734, "RA_OF_ASC_NODE": 163.1383, "ARG_OF_PERICENTER": 269.8052, "MEAN_ANOMALY": 18.6619, "EPHEMERIS_TYPE": 0, "CLASSIFICATION_TYPE": "U", "NORAD_CAT_ID": 66586, "ELEMENT_SET_NO": 999, "REV_AT_EPOCH": 29, "BSTAR": -0.017798837, "MEAN_MOTION_DOT": 1.125e-05, "MEAN_MOTION_DDOT": 0}, "tle": {"line1": "1 66586U 25269A   25339.24566365  .00001125  00000+0 -17799-1 0  9997", "line2": "2 66586  63.2734 163.1383 6805128 269.8052  18.6619  2.00559462   290"}}, "geometry": {"type": "Point", "coordinates": [-32.61525533964425, 27.98205435447057]}}, {"type": "Feature", "properties": {"norad_id": 66587, "name": "CZ-3B R/B", "group": "last-30-days", "lat": 44.38182845234482, "lon": -137.4608306985711, "alt_km": 35008.79638516952, "timestamp": "2025-12-07T03:52:31.204493+00:00", "meta": {"OBJECT_NAME": "CZ-3B R/B", "OBJECT_ID": "2025-269B", "EPOCH": "2025-12-05T21:16:01.117056", "MEAN_MOTION": 2.02575003, "ECCENTRICITY": 0.75200619, "INCLINATION": 51.3669, "RA_OF_ASC_NODE": 171.2323, "ARG_OF_PERICENTER": 227.4915, "MEAN_ANOMALY": 38.5744, "EPHEMERIS_TYPE": 0, "CLASSIFICATION_TYPE": "U", "NORAD_CAT_ID": 66587, "ELEMENT_SET_NO": 999, "REV_AT_EPOCH": 31, "BSTAR": 0.0017517289, "MEAN_MOTION_DOT": 0.00055981, "MEAN_MOTION_DDOT": -8.28456e-07}, "tle": {"line1": "1 66587U 25269B   25339.88612404  .00055981 -82846-6  17517-2 0  9997", "line2": "2 66587  51.3669 171.2323 7520061 227.4915  38.5744  2.02575003   313"}}, "geometry": {"type": "Point", "coordinates": [-137.4608306985711, 44.38182845234482]}}, {"type": "Feature", "properties": {"norad_id": 66588, "name": "STARLINK-36076", "group": "last-30-days", "lat": 40.454519133035696, "lon": -68.1764285467213, "alt_km": 364.62778025165153, "timestamp": "2025-12-07T03:52:31.204505+00:00", "meta": {"OBJECT_NAME": "STARLINK-36076", "OBJECT_ID": "2025-270A", "EPOCH": "2025-12-06T14:00:01.999872", "MEAN_MOTION": 15.68359515, "ECCENTRICITY": 0.00014528, "INCLINATION": 42.999, "RA_OF_ASC_NODE": 229.0695, "ARG_OF_PERICENTER": 248.2727, "MEAN_ANOMALY": 158.1199, "EPHEMERIS_TYPE": 0, "CLASSIFICATION_TYPE": "U", "NORAD_CAT_ID": 66588, "ELEMENT_SET_NO": 999, "REV_AT_EPOCH": 341, "BSTAR": -0.016986865, "MEAN_MOTION_DOT": -0.01728176, "MEAN_MOTION_DDOT": 0}, "tle": {"line1": "1 66588U 25270A   25340.58335648 -.01728176  00000+0 -16987-1 0  9990", "line2": "2 66588  42.9990 229.0695 0001452 248.2727 158.1199 15.68359515  3415"}}, "geometry": {"type": "Point", "coordinates": [-68.1764285467213, 40.454519133035696]}}, {"type": "Feature", "properties": {"norad_id": 66589, "name": "STARLINK-35447", "group": "last-30-days", "lat": 41.40368796121808, "lon": -63.27685420739129, "alt_km": 364.78364210872405, "timestamp": "2025-12-07T03:52:31.204515+00:00", "meta": {"OBJECT_NAME": "STARLINK-35447", "OBJECT_ID": "2025-270B", "EPOCH": "2025-12-06T14:00:01.999872", "MEAN_MOTION": 15.68502016, "ECCENTRICITY": 0.00016635, "INCLINATION": 42.999, "RA_OF_ASC_NODE": 229.0599, "ARG_OF_PERICENTER": 260.2639, "MEAN_ANOMALY": 149.8513, "EPHEMERIS_TYPE": 0, "CLASSIFICATION_TYPE": "U", "NORAD_CAT_ID": 66589, "ELEMENT_SET_NO": 999, "REV_AT_EPOCH": 352, "BSTAR": -0.018415149, "MEAN_MOTION_DOT": -0.01901733, "MEAN_MOTION_DDOT": 0}, "tle": {"line1": "1 66589U 25270B   25340.58335648 -.01901733  00000+0 -18415-1 0  9991", "line2": "2 66589  42.9990 229.0599 0001663 260.2639 149.8513 15.68502016  3524"}}, "geometry": {"type": "Point", "coordinates": [-63.27685420739129, 41.40368796121808]}}, {"type": "Feature", "properties": {"norad_id": 66590, "name": "STARLINK-35429", "group": "last-30-days", "lat": 40.9539940887192, "lon": -65.75020280393134, "alt_km": 364.75182759741983, "timestamp": "2025-12-07T03:52:31.204526+00:00", "meta": {"OBJECT_NAME": "STARLINK-35429", "OBJECT_ID": "2025-270C", "EPOCH": "2025-12-06T14:00:01.999872", "MEAN_MOTION": 15.68503805, "ECCENTRICITY": 0.00015279, "INCLINATION": 42.999, "RA_OF_ASC_NODE": 229.0648, "ARG_OF_PERICENTER": 261.127, "MEAN_ANOMALY": 147.0704, "EPHEMERIS_TYPE": 0, "CLASSIFICATION_TYPE": "U", "NORAD_CAT_ID": 66590, "ELEMENT_SET_NO": 999, "REV_AT_EPOCH": 352, "BSTAR": -0.018436263, "MEAN_MOTION_DOT": -0.01903691, "MEAN_MOTION_DDOT": 0}, "tle": {"line1": "1 66590U 25270C   25340.58335648 -.01903691  00000+0 -18436-1 0  9991", "line2": "2 66590  42.9990 229.0648 0001527 261.1270 147.0704 15.68503805  3520"}}, "geometry": {"type": "Point", "coordinates": [-65.75020280393134, 40.9539940887192]}}, {"type": "Feature", "properties": {"norad_id": 66591, "name": "STARLINK-36058", "group": "last-30-days", "lat": 41.79986872340269, "lon": -60.76773596084197, "alt_km": 364.69570463246964, "timestamp": "2025-12-07T03:52:31.204538+00:00", "meta": {"OBJECT_NAME": "STARLINK-36058", "OBJECT_ID": "2025-270D", "EPOCH": "2025-12-06T14:00:01.999872", "MEAN_MOTION": 15.68500388, "ECCENTRICITY": 0.00016346, "INCLINATION": 42.9989, "RA_OF_ASC_NODE": 229.0551, "ARG_OF_PERICENTER": 261.9652, "MEAN_ANOMALY": 150.0677, "EPHEMERIS_TYPE": 0, "CLASSIFICATION_TYPE": "U", "NORAD_CAT_ID": 66591, "ELEMENT_SET_NO": 999, "REV_AT_EPOCH": 341, "BSTAR": -0.01838474, "MEAN_MOTION_DOT": -0.01898813, "MEAN_MOTION_DDOT": 0}, "tle": {"line1": "1 66591U 25270D   25340.58335648 -.01898813  00000+0 -18385-1 0  9994", "line2": "2 66591  42.9989 229.0551 0001634 261.9652 150.0677 15.68500388  3417"}}, "geometry": {"type": "Point", "coordinates": [-60.76773596084197, 41.79986872340269]}}, {"type": "Feature", "properties": {"norad_id": 66592, "name": "STARLINK-36066", "group": "last-30-days", "lat": 42.14038768381128, "lon": -58.233456974635594, "alt_km": 364.64712870141375, "timestamp": "2025-12-07T03:52:31.204551+00:00", "meta": {"OBJECT_NAME": "STARLINK-36066", "OBJECT_ID": "2025-270E", "EPOCH": "2025-12-06T14:00:01.999872", "MEAN_MOTION": 15.68503087, "ECCENTRICITY": 0.00016313, "INCLINATION": 42.9991, "RA_OF_ASC_NODE": 229.0505, "ARG_OF_PERICENTER": 260.8897, "MEAN_ANOMALY": 153.057, "EPHEMERIS_TYPE": 0, "CLASSIFICATION_TYPE": "U", "NORAD_CAT_ID": 66592, "ELEMENT_SET_NO": 999, "REV_AT_EPOCH": 331, "BSTAR": -0.018402699, "MEAN_MOTION_DOT": -0.01900644, "MEAN_MOTION_DDOT": 0}, "tle": {"line1": "1 66592U 25270E   25340.58335648 -.01900644  00000+0 -18403-1 0  9992", "line2": "2 66592  42.9991 229.0505 0001631 260.8897 153.0570 15.68503087  3319"}}, "geometry": {"type": "Point", "coordinates": [-58.233456974635594, 42.14038768381128]}}]}